[{"OBJECT_NAME":"BLUEBON","OBJECT_ID":"2025-009CH","EPOCH":"2026-03-09T16:52:33.225312","MEAN_MOTION":15.29047254,"ECCENTRICITY":0.00011933,"INCLINATION":97.4017,"RA_OF_ASC_NODE":152.2033,"ARG_OF_PERICENTER":43.39,"MEAN_ANOMALY":316.7434,"EPHEMERIS_TYPE":0,"CLASSIFICATION_TYPE":"U","NORAD_CAT_ID":62688,"ELEMENT_SET_NO":999,"REV_AT_EPOCH":6376,"BSTAR":0.00037313027,"MEAN_MOTION_DOT":0.00010452,"MEAN_MOTION_DDOT":0},{"OBJECT_NAME":"STARLINK-33666","OBJECT_ID":"2025-076Z","EPOCH":"2026-03-09T09:30:54.571680","MEAN_MOTION":15.27585194,"ECCENTRICITY":4.985e-5,"INCLINATION":42.9991,"RA_OF_ASC_NODE":323.5122,"ARG_OF_PERICENTER":2.6274,"MEAN_ANOMALY":357.458,"EPHEMERIS_TYPE":0,"CLASSIFICATION_TYPE":"U","NORAD_CAT_ID":63592,"ELEMENT_SET_NO":999,"REV_AT_EPOCH":5178,"BSTAR":0.0010730104,"MEAN_MOTION_DOT":0.00029387,"MEAN_MOTION_DDOT":0}]
