BLUEBON                 
1 62688U 25009CH  26068.70316231  .00010452  00000+0  37313-3 0  9992
2 62688  97.4017 152.2033 0001193  43.3900 316.7434 15.29047253 63767
STARLINK-33666          
1 63592U 25076Z   26068.39646495  .00029387  00000+0  10730-2 0  9994
2 63592  42.9991 323.5122 0000498   2.6274 357.4580 15.27585194 51781
